{
  "type": "FeatureCollection",
  "features": [
    {
      "type": "Feature",
      "properties": {
        "norad_id": 63772,
        "name": "BIOMASS",
        "group": "resource",
        "lat": -42.50153594766449,
        "lon": -20.235105557385676,
        "alt_km": 676.317686899497,
        "timestamp": "2025-12-08T03:50:06.662886+00:00",
        "meta_object_name": "BIOMASS",
        "meta_object_id": "2025-090A",
        "meta_epoch": "2025-12-07T05:32:58.802496",
        "meta_mean_motion": 14.67537255,
        "meta_eccentricity": 0.00012591,
        "meta_inclination": 98.0701,
        "meta_ra_of_asc_node": 166.3209,
        "meta_arg_of_pericenter": 76.4322,
        "meta_mean_anomaly": 283.7023,
        "meta_ephemeris_type": 0,
        "meta_classification_type": "U",
        "meta_norad_cat_id": 63772,
        "meta_element_set_no": 999,
        "meta_rev_at_epoch": 3253,
        "meta_bstar": 0.00058004787,
        "meta_mean_motion_dot": 3.242e-05,
        "meta_mean_motion_ddot": 0,
        "tle_line1": "1 63772U 25090A   25341.23123614  .00003242  00000+0  58005-3 0  9999",
        "tle_line2": "2 63772  98.0701 166.3209 0001259  76.4322 283.7023 14.67537255 32533"
      },
      "geometry": {
        "type": "Point",
        "coordinates": [
          -20.235105557385676,
          -42.50153594766449
        ]
      }
    },
    {
      "type": "Feature",
      "properties": {
        "norad_id": 64694,
        "name": "GOSAT-GW (IBUKI GW)",
        "group": "resource",
        "lat": 70.32337088761997,
        "lon": -105.53503085030388,
        "alt_km": 660.988902336102,
        "timestamp": "2025-12-08T03:50:06.662896+00:00",
        "meta_object_name": "GOSAT-GW (IBUKI GW)",
        "meta_object_id": "2025-141A",
        "meta_epoch": "2025-12-07T06:14:09.330144",
        "meta_mean_motion": 14.67559319,
        "meta_eccentricity": 0.00015196,
        "meta_inclination": 98.0424,
        "meta_ra_of_asc_node": 276.872,
        "meta_arg_of_pericenter": 83.4929,
        "meta_mean_anomaly": 276.6449,
        "meta_ephemeris_type": 0,
        "meta_classification_type": "U",
        "meta_norad_cat_id": 64694,
        "meta_element_set_no": 999,
        "meta_rev_at_epoch": 2369,
        "meta_bstar": 0.00037302523,
        "meta_mean_motion_dot": 2.069e-05,
        "meta_mean_motion_ddot": 0,
        "tle_line1": "1 64694U 25141A   25341.25983021  .00002069  00000+0  37303-3 0  9992",
        "tle_line2": "2 64694  98.0424 276.8720 0001519  83.4929 276.6449 14.67559319 23699"
      },
      "geometry": {
        "type": "Point",
        "coordinates": [
          -105.53503085030388,
          70.32337088761997
        ]
      }
    },
    {
      "type": "Feature",
      "properties": {
        "norad_id": 64876,
        "name": "IONOSFERA-M 3",
        "group": "resource",
        "lat": 64.81548947756235,
        "lon": 142.8773203518279,
        "alt_km": 812.9991067629917,
        "timestamp": "2025-12-08T03:50:06.662906+00:00",
        "meta_object_name": "IONOSFERA-M 3",
        "meta_object_id": "2025-155A",
        "meta_epoch": "2025-12-07T05:20:24.885600",
        "meta_mean_motion": 14.2143895,
        "meta_eccentricity": 0.0002352,
        "meta_inclination": 98.5776,
        "meta_ra_of_asc_node": 303.245,
        "meta_arg_of_pericenter": 68.7136,
        "meta_mean_anomaly": 291.4292,
        "meta_ephemeris_type": 0,
        "meta_classification_type": "U",
        "meta_norad_cat_id": 64876,
        "meta_element_set_no": 999,
        "meta_rev_at_epoch": 1913,
        "meta_bstar": 0.00010309203,
        "meta_mean_motion_dot": 1.83e-06,
        "meta_mean_motion_ddot": 0,
        "tle_line1": "1 64876U 25155A   25341.22251025  .00000183  00000+0  10309-3 0  9990",
        "tle_line2": "2 64876  98.5776 303.2450 0002352  68.7136 291.4292 14.21438950 19135"
      },
      "geometry": {
        "type": "Point",
        "coordinates": [
          142.8773203518279,
          64.81548947756235
        ]
      }
    },
    {
      "type": "Feature",
      "properties": {
        "norad_id": 64877,
        "name": "IONOSFERA-M 4",
        "group": "resource",
        "lat": -64.33987596964387,
        "lon": -37.614113485007344,
        "alt_km": 828.496660878066,
        "timestamp": "2025-12-08T03:50:06.662916+00:00",
        "meta_object_name": "IONOSFERA-M 4",
        "meta_object_id": "2025-155B",
        "meta_epoch": "2025-12-07T06:10:54.950016",
        "meta_mean_motion": 14.21440006,
        "meta_eccentricity": 0.00017073,
        "meta_inclination": 98.5775,
        "meta_ra_of_asc_node": 303.1987,
        "meta_arg_of_pericenter": 69.1403,
        "meta_mean_anomaly": 290.9957,
        "meta_ephemeris_type": 0,
        "meta_classification_type": "U",
        "meta_norad_cat_id": 64877,
        "meta_element_set_no": 999,
        "meta_rev_at_epoch": 1913,
        "meta_bstar": 9.6039267e-05,
        "meta_mean_motion_dot": 1.67e-06,
        "meta_mean_motion_ddot": 0,
        "tle_line1": "1 64877U 25155B   25341.25758044  .00000167  00000+0  96039-4 0  9994",
        "tle_line2": "2 64877  98.5775 303.1987 0001707  69.1403 290.9957 14.21440006 19131"
      },
      "geometry": {
        "type": "Point",
        "coordinates": [
          -37.614113485007344,
          -64.33987596964387
        ]
      }
    },
    {
      "type": "Feature",
      "properties": {
        "norad_id": 64899,
        "name": "MICROCARB",
        "group": "resource",
        "lat": -24.03517651579834,
        "lon": 61.17553368729782,
        "alt_km": 671.8639650926962,
        "timestamp": "2025-12-08T03:50:06.662926+00:00",
        "meta_object_name": "MICROCARB",
        "meta_object_id": "2025-156A",
        "meta_epoch": "2025-12-07T03:28:30.166176",
        "meta_mean_motion": 14.72042923,
        "meta_eccentricity": 0.00167732,
        "meta_inclination": 98.0029,
        "meta_ra_of_asc_node": 56.5797,
        "meta_arg_of_pericenter": 162.0264,
        "meta_mean_anomaly": 198.154,
        "meta_ephemeris_type": 0,
        "meta_classification_type": "U",
        "meta_norad_cat_id": 64899,
        "meta_element_set_no": 999,
        "meta_rev_at_epoch": 1971,
        "meta_bstar": 0.00022598184,
        "meta_mean_motion_dot": 1.373e-05,
        "meta_mean_motion_ddot": 0,
        "tle_line1": "1 64899U 25156A   25341.14479359  .00001373  00000+0  22598-3 0  9994",
        "tle_line2": "2 64899  98.0029  56.5797 0016773 162.0264 198.1540 14.72042923 19710"
      },
      "geometry": {
        "type": "Point",
        "coordinates": [
          61.17553368729782,
          -24.03517651579834
        ]
      }
    },
    {
      "type": "Feature",
      "properties": {
        "norad_id": 64900,
        "name": "CO3D 3",
        "group": "resource",
        "lat": -54.51099038008479,
        "lon": 69.14570071064858,
        "alt_km": 513.0919392088335,
        "timestamp": "2025-12-08T03:50:06.662936+00:00",
        "meta_object_name": "CO3D 3",
        "meta_object_id": "2025-156B",
        "meta_epoch": "2025-12-07T04:22:54.120576",
        "meta_mean_motion": 15.20207661,
        "meta_eccentricity": 0.00013063,
        "meta_inclination": 97.4344,
        "meta_ra_of_asc_node": 57.6298,
        "meta_arg_of_pericenter": 113.3886,
        "meta_mean_anomaly": 246.7487,
        "meta_ephemeris_type": 0,
        "meta_classification_type": "U",
        "meta_norad_cat_id": 64900,
        "meta_element_set_no": 999,
        "meta_rev_at_epoch": 2036,
        "meta_bstar": 0.00046423425,
        "meta_mean_motion_dot": 9.997e-05,
        "meta_mean_motion_ddot": 0,
        "tle_line1": "1 64900U 25156B   25341.18257084  .00009997  00000+0  46423-3 0  9993",
        "tle_line2": "2 64900  97.4344  57.6298 0001306 113.3886 246.7487 15.20207661 20368"
      },
      "geometry": {
        "type": "Point",
        "coordinates": [
          69.14570071064858,
          -54.51099038008479
        ]
      }
    },
    {
      "type": "Feature",
      "properties": {
        "norad_id": 64901,
        "name": "CO3D 4",
        "group": "resource",
        "lat": -55.36027177631983,
        "lon": 69.48739632243971,
        "alt_km": 512.1372091399498,
        "timestamp": "2025-12-08T03:50:06.662946+00:00",
        "meta_object_name": "CO3D 4",
        "meta_object_id": "2025-156C",
        "meta_epoch": "2025-12-07T05:57:54.297504",
        "meta_mean_motion": 15.20198063,
        "meta_eccentricity": 0.00010427,
        "meta_inclination": 97.4341,
        "meta_ra_of_asc_node": 57.695,
        "meta_arg_of_pericenter": 227.975,
        "meta_mean_anomaly": 132.1396,
        "meta_ephemeris_type": 0,
        "meta_classification_type": "U",
        "meta_norad_cat_id": 64901,
        "meta_element_set_no": 999,
        "meta_rev_at_epoch": 2037,
        "meta_bstar": 0.00046046056,
        "meta_mean_motion_dot": 9.912e-05,
        "meta_mean_motion_ddot": 0,
        "tle_line1": "1 64901U 25156C   25341.24854511  .00009912  00000+0  46046-3 0  9997",
        "tle_line2": "2 64901  97.4341  57.6950 0001042 227.9750 132.1396 15.20198063 20373"
      },
      "geometry": {
        "type": "Point",
        "coordinates": [
          69.48739632243971,
          -55.36027177631983
        ]
      }
    }
  ]
}